{
  "norad_id": 58781,
  "name": "STARLINK-31099",
  "history": [
    {
      "epoch": "2026-04-15T13:32:04.046208Z",
      "apogee_km": 476.1937169883586,
      "perigee_km": 474.35426147884937,
      "latitude_deg": -1.2207209837805362e-05,
      "longitude_deg": 155.80653529886362,
      "height_km": 476.0128345895086,
      "semi_major_axis_km": 6853.410989233604,
      "eccentricity": 0.0001342,
      "inclination_deg": 53.162,
      "raan_deg": 202.5476,
      "arg_perigee_deg": 80.0214,
      "mean_anomaly_deg": 280.0938,
      "mean_motion_rev_day": 15.30180267
    },
    {
      "epoch": "2026-04-16T13:02:52.155744Z",
      "apogee_km": 475.9794284057207,
      "perigee_km": 474.482652825649,
      "latitude_deg": -7.995639928251245e-06,
      "longitude_deg": 157.59092440066084,
      "height_km": 475.8711481653946,
      "semi_major_axis_km": 6853.368040615685,
      "eccentricity": 0.0001092,
      "inclination_deg": 53.1606,
      "raan_deg": 197.9981,
      "arg_perigee_deg": 69.804,
      "mean_anomaly_deg": 290.3078,
      "mean_motion_rev_day": 15.30194651
    },
    {
      "epoch": "2026-04-17T12:33:40.197024Z",
      "apogee_km": 475.98088651817216,
      "perigee_km": 474.4876739836309,
      "latitude_deg": 4.231302735287759e-06,
      "longitude_deg": 159.37440422083037,
      "height_km": 475.84653565306894,
      "semi_major_axis_km": 6853.371280250901,
      "eccentricity": 0.00010894,
      "inclination_deg": 53.1605,
      "raan_deg": 193.4474,
      "arg_perigee_deg": 67.4569,
      "mean_anomaly_deg": 292.6547,
      "mean_motion_rev_day": 15.30193566
    },
    {
      "epoch": "2026-04-18T12:04:27.453792Z",
      "apogee_km": 475.9581682700373,
      "perigee_km": 474.4819551589426,
      "latitude_deg": -5.212351273204309e-05,
      "longitude_deg": 161.16070977342315,
      "height_km": 476.05407662168,
      "semi_major_axis_km": 6853.35706171449,
      "eccentricity": 0.0001077,
      "inclination_deg": 53.1599,
      "raan_deg": 188.8963,
      "arg_perigee_deg": 85.0004,
      "mean_anomaly_deg": 275.1119,
      "mean_motion_rev_day": 15.30198328
    },
    {
      "epoch": "2026-04-19T11:35:15.978912Z",
      "apogee_km": 475.9996031656001,
      "perigee_km": 474.5002191771737,
      "latitude_deg": -4.051691401117997e-06,
      "longitude_deg": 162.94029270042907,
      "height_km": 476.1626051141641,
      "semi_major_axis_km": 6853.386911171387,
      "eccentricity": 0.00010939,
      "inclination_deg": 53.1602,
      "raan_deg": 184.3437,
      "arg_perigee_deg": 91.0977,
      "mean_anomaly_deg": 269.0149,
      "mean_motion_rev_day": 15.30188331
    },
    {
      "epoch": "2026-04-20T11:06:04.924800Z",
      "apogee_km": 476.186883838036,
      "perigee_km": 474.3551049492944,
      "latitude_deg": 1.1178295188561165e-05,
      "longitude_deg": 164.72079209644644,
      "height_km": 476.17285517204175,
      "semi_major_axis_km": 6853.407994393665,
      "eccentricity": 0.00013364,
      "inclination_deg": 53.1607,
      "raan_deg": 179.7938,
      "arg_perigee_deg": 90.2384,
      "mean_anomaly_deg": 269.877,
      "mean_motion_rev_day": 15.3018127
    },
    {
      "epoch": "2026-04-21T10:36:51.234624Z",
      "apogee_km": 476.22191715389545,
      "perigee_km": 474.2417047696572,
      "latitude_deg": 6.651300641399763e-05,
      "longitude_deg": 166.5125343710512,
      "height_km": 476.0973100671838,
      "semi_major_axis_km": 6853.368810961776,
      "eccentricity": 0.00014447,
      "inclination_deg": 53.1602,
      "raan_deg": 175.2441,
      "arg_perigee_deg": 88.1279,
      "mean_anomaly_deg": 271.9888,
      "mean_motion_rev_day": 15.30194393
    },
    {
      "epoch": "2026-04-22T08:33:37.024128Z",
      "apogee_km": 476.42834071060224,
      "perigee_km": 474.05145253531555,
      "latitude_deg": 1.5866608704812226e-05,
      "longitude_deg": -167.82708764539757,
      "height_km": 476.2340076772961,
      "semi_major_axis_km": 6853.376896622959,
      "eccentricity": 0.00017341,
      "inclination_deg": 53.1604,
      "raan_deg": 170.9966,
      "arg_perigee_deg": 94.6644,
      "mean_anomaly_deg": 265.4555,
      "mean_motion_rev_day": 15.30191685
    },
    {
      "epoch": "2026-04-23T11:12:32.406336Z",
      "apogee_km": 476.2440775814557,
      "perigee_km": 474.3011359579359,
      "latitude_deg": -2.0644438149431935e-05,
      "longitude_deg": 146.19039963028806,
      "height_km": 476.6037183614695,
      "semi_major_axis_km": 6853.4096067696955,
      "eccentricity": 0.00014175,
      "inclination_deg": 53.1613,
      "raan_deg": 165.8393,
      "arg_perigee_deg": 116.4631,
      "mean_anomaly_deg": 243.6515,
      "mean_motion_rev_day": 15.3018073
    }
  ]
}